MALLIGYONG-1            
1 58400U 23179A   24069.57495556  .00006441  00000+0  29039-3 0  9996
2 58400  97.4187 317.9106 0007882 247.6203 112.4198 15.21345517 16570
